ICEYE-X53               
1 64584U 25135BJ  26193.82506856  .00000103  00000+0  12779-4 0  9997
2 64584  97.7358 310.4949 0001835 166.6806 193.4466 15.00886491 57926
ICEYE-X65               
1 66300U 25248H   26193.85451662  .00001905  00000+0  13812-3 0  9996
2 66300  45.4057 359.2087 0005316 186.8158 173.2652 15.07919894 39391
ICEYE-X66               
1 66301U 25248J   26193.85415166  .00002061  00000+0  14330-3 0  9996
2 66301  45.4024 358.3162 0004930 182.8177 177.2678 15.09167986 39388
ICEYE-X67               
1 66302U 25248K   26193.48163581  .00001870  00000+0  13157-3 0  9990
2 66302  45.4063 359.8564 0006449 180.6538 179.4337 15.09148785 39346
ICEYE-X58               
1 66751U 25276CP  26193.77348286  .00001629  00000+0  85086-4 0  9991
2 66751  97.4196 266.7018 0001999 226.7753 133.3314 15.17299977 34296
ICEYE-X59               
1 66752U 25276CQ  26193.74548333  .00002964  00000+0  23826-3 0  9990
2 66752  97.4386 263.9505 0000817 138.9490 221.1796 15.00739965 34106
ICEYE-X60               
1 66753U 25276CR  26193.74930697  .00003164  00000+0  19247-3 0  9994
2 66753  97.4200 265.6603 0001481 353.8857   6.2355 15.11136424 34222
ICEYE-X61               
1 66754U 25276CS  26193.72784503  .00001703  00000+0  85583-4 0  9990
2 66754  97.4197 266.7418 0001906 226.1645 133.9432 15.18600696 34298
ICEYE-X62               
1 66755U 25276CT  26193.77366080  .00001078  00000+0  69919-4 0  9992
2 66755  97.4194 265.1809 0000657 276.9402  83.1753 15.10126973 34193
ICEYE-X63               
1 67372U 26004K   26193.56234167  .00000493  00000+0  59196-4 0  9991
2 67372  97.8013 191.8061 0005545  58.0758 302.0997 14.88345942 27077
ICEYE-X64               
1 67373U 26004L   26193.47591908  .00000687  00000+0  80804-4 0  9996
2 67373  97.8026 191.6413 0007375  61.3720 298.8238 14.87983247 27053
ICEYE-X71               
1 68494U 26067CG  26193.81950279  .00001459  00000+0  15027-3 0  9990
2 68494  97.7624 151.6629 0001222 356.5807   3.5403 14.91786437 15549
ICEYE-X73               
1 68496U 26067CJ  26193.78103338  .00001370  00000+0  13950-3 0  9999
2 68496  97.7621 151.7091 0001320 153.0094 207.1193 14.92342760 15545
ICEYE-X75               
1 68497U 26067CK  26193.78523590  .00000482  00000+0  52849-4 0  9990
2 68497  97.7605 151.6814 0001200 148.9692 211.1598 14.92171335 15546
ICEYE-X74               
1 68500U 26067CN  26193.81863784  .00001442  00000+0  14852-3 0  9999
2 68500  97.7632 151.6720 0001027 354.3589   5.7618 14.91786676 15541
ICEYE-X76               
1 68502U 26067CQ  26193.81446412  .00000537  00000+0  58790-4 0  9990
2 68502  97.7640 151.6860 0000723 336.2306  23.8879 14.91747811 15543
