{"fetched_at":"2026-07-13T07:48:23.751Z","source":"https://celestrak.org/NORAD/elements/gp.php?NAME=ICEYE&FORMAT=JSON","constellation":"iceye","records":[{"OBJECT_NAME":"ICEYE-X53","OBJECT_ID":"2025-135BJ","EPOCH":"2026-07-12T19:48:05.923584","CLASSIFICATION_TYPE":"U","MEAN_MOTION":15.00886491,"ECCENTRICITY":0.0001835,"INCLINATION":97.7358,"RA_OF_ASC_NODE":310.4949,"ARG_OF_PERICENTER":166.6806,"MEAN_ANOMALY":193.4466,"EPHEMERIS_TYPE":0,"NORAD_CAT_ID":64584,"ELEMENT_SET_NO":999,"REV_AT_EPOCH":5792,"BSTAR":0.000012779,"MEAN_MOTION_DOT":0.00000103,"MEAN_MOTION_DDOT":0},{"OBJECT_NAME":"ICEYE-X65","OBJECT_ID":"2025-248H","EPOCH":"2026-07-12T20:30:30.235968","CLASSIFICATION_TYPE":"U","MEAN_MOTION":15.07919894,"ECCENTRICITY":0.0005316,"INCLINATION":45.4057,"RA_OF_ASC_NODE":359.2087,"ARG_OF_PERICENTER":186.8158,"MEAN_ANOMALY":173.2652,"EPHEMERIS_TYPE":0,"NORAD_CAT_ID":66300,"ELEMENT_SET_NO":999,"REV_AT_EPOCH":3939,"BSTAR":0.00013812,"MEAN_MOTION_DOT":0.00001905,"MEAN_MOTION_DDOT":0},{"OBJECT_NAME":"ICEYE-X66","OBJECT_ID":"2025-248J","EPOCH":"2026-07-12T20:29:58.703424","CLASSIFICATION_TYPE":"U","MEAN_MOTION":15.09167986,"ECCENTRICITY":0.000493,"INCLINATION":45.4024,"RA_OF_ASC_NODE":358.3162,"ARG_OF_PERICENTER":182.8177,"MEAN_ANOMALY":177.2678,"EPHEMERIS_TYPE":0,"NORAD_CAT_ID":66301,"ELEMENT_SET_NO":999,"REV_AT_EPOCH":3938,"BSTAR":0.0001433,"MEAN_MOTION_DOT":0.00002061,"MEAN_MOTION_DDOT":0},{"OBJECT_NAME":"ICEYE-X67","OBJECT_ID":"2025-248K","EPOCH":"2026-07-12T11:33:33.333984","CLASSIFICATION_TYPE":"U","MEAN_MOTION":15.09148785,"ECCENTRICITY":0.00064491,"INCLINATION":45.4063,"RA_OF_ASC_NODE":359.8564,"ARG_OF_PERICENTER":180.6538,"MEAN_ANOMALY":179.4337,"EPHEMERIS_TYPE":0,"NORAD_CAT_ID":66302,"ELEMENT_SET_NO":999,"REV_AT_EPOCH":3934,"BSTAR":0.00013156723,"MEAN_MOTION_DOT":0.0000187,"MEAN_MOTION_DDOT":0},{"OBJECT_NAME":"ICEYE-X58","OBJECT_ID":"2025-276CP","EPOCH":"2026-07-12T18:33:48.919104","CLASSIFICATION_TYPE":"U","MEAN_MOTION":15.17299977,"ECCENTRICITY":0.0001999,"INCLINATION":97.4196,"RA_OF_ASC_NODE":266.7018,"ARG_OF_PERICENTER":226.7753,"MEAN_ANOMALY":133.3314,"EPHEMERIS_TYPE":0,"NORAD_CAT_ID":66751,"ELEMENT_SET_NO":999,"REV_AT_EPOCH":3429,"BSTAR":0.000085086,"MEAN_MOTION_DOT":0.00001629,"MEAN_MOTION_DDOT":0},{"OBJECT_NAME":"ICEYE-X59","OBJECT_ID":"2025-276CQ","EPOCH":"2026-07-12T17:53:29.759712","CLASSIFICATION_TYPE":"U","MEAN_MOTION":15.00739965,"ECCENTRICITY":0.0000817,"INCLINATION":97.4386,"RA_OF_ASC_NODE":263.9505,"ARG_OF_PERICENTER":138.949,"MEAN_ANOMALY":221.1796,"EPHEMERIS_TYPE":0,"NORAD_CAT_ID":66752,"ELEMENT_SET_NO":999,"REV_AT_EPOCH":3410,"BSTAR":0.00023826,"MEAN_MOTION_DOT":0.00002964,"MEAN_MOTION_DDOT":0},{"OBJECT_NAME":"ICEYE-X60","OBJECT_ID":"2025-276CR","EPOCH":"2026-07-12T17:59:00.122208","CLASSIFICATION_TYPE":"U","MEAN_MOTION":15.11136424,"ECCENTRICITY":0.0001481,"INCLINATION":97.42,"RA_OF_ASC_NODE":265.6603,"ARG_OF_PERICENTER":353.8857,"MEAN_ANOMALY":6.2355,"EPHEMERIS_TYPE":0,"NORAD_CAT_ID":66753,"ELEMENT_SET_NO":999,"REV_AT_EPOCH":3422,"BSTAR":0.00019247,"MEAN_MOTION_DOT":0.00003164,"MEAN_MOTION_DDOT":0},{"OBJECT_NAME":"ICEYE-X61","OBJECT_ID":"2025-276CS","EPOCH":"2026-07-12T17:28:05.810592","CLASSIFICATION_TYPE":"U","MEAN_MOTION":15.18600696,"ECCENTRICITY":0.0001906,"INCLINATION":97.4197,"RA_OF_ASC_NODE":266.7418,"ARG_OF_PERICENTER":226.1645,"MEAN_ANOMALY":133.9432,"EPHEMERIS_TYPE":0,"NORAD_CAT_ID":66754,"ELEMENT_SET_NO":999,"REV_AT_EPOCH":3429,"BSTAR":0.000085583,"MEAN_MOTION_DOT":0.00001703,"MEAN_MOTION_DDOT":0},{"OBJECT_NAME":"ICEYE-X62","OBJECT_ID":"2025-276CT","EPOCH":"2026-07-12T18:34:04.293120","CLASSIFICATION_TYPE":"U","MEAN_MOTION":15.10126973,"ECCENTRICITY":0.0000657,"INCLINATION":97.4194,"RA_OF_ASC_NODE":265.1809,"ARG_OF_PERICENTER":276.9402,"MEAN_ANOMALY":83.1753,"EPHEMERIS_TYPE":0,"NORAD_CAT_ID":66755,"ELEMENT_SET_NO":999,"REV_AT_EPOCH":3419,"BSTAR":0.000069919,"MEAN_MOTION_DOT":0.00001078,"MEAN_MOTION_DDOT":0},{"OBJECT_NAME":"ICEYE-X63","OBJECT_ID":"2026-004K","EPOCH":"2026-07-12T13:29:46.320288","CLASSIFICATION_TYPE":"U","MEAN_MOTION":14.88345942,"ECCENTRICITY":0.0005545,"INCLINATION":97.8013,"RA_OF_ASC_NODE":191.8061,"ARG_OF_PERICENTER":58.0758,"MEAN_ANOMALY":302.0997,"EPHEMERIS_TYPE":0,"NORAD_CAT_ID":67372,"ELEMENT_SET_NO":999,"REV_AT_EPOCH":2707,"BSTAR":0.000059196,"MEAN_MOTION_DOT":0.00000493,"MEAN_MOTION_DDOT":0},{"OBJECT_NAME":"ICEYE-X64","OBJECT_ID":"2026-004L","EPOCH":"2026-07-12T11:25:19.408512","CLASSIFICATION_TYPE":"U","MEAN_MOTION":14.87983247,"ECCENTRICITY":0.00073756,"INCLINATION":97.8026,"RA_OF_ASC_NODE":191.6413,"ARG_OF_PERICENTER":61.372,"MEAN_ANOMALY":298.8238,"EPHEMERIS_TYPE":0,"NORAD_CAT_ID":67373,"ELEMENT_SET_NO":999,"REV_AT_EPOCH":2705,"BSTAR":0.000080803714,"MEAN_MOTION_DOT":0.00000687,"MEAN_MOTION_DDOT":0},{"OBJECT_NAME":"ICEYE-X71","OBJECT_ID":"2026-067CG","EPOCH":"2026-07-12T19:40:05.041056","CLASSIFICATION_TYPE":"U","MEAN_MOTION":14.91786437,"ECCENTRICITY":0.0001222,"INCLINATION":97.7624,"RA_OF_ASC_NODE":151.6629,"ARG_OF_PERICENTER":356.5807,"MEAN_ANOMALY":3.5403,"EPHEMERIS_TYPE":0,"NORAD_CAT_ID":68494,"ELEMENT_SET_NO":999,"REV_AT_EPOCH":1554,"BSTAR":0.00015027,"MEAN_MOTION_DOT":0.00001459,"MEAN_MOTION_DDOT":0},{"OBJECT_NAME":"ICEYE-X73","OBJECT_ID":"2026-067CJ","EPOCH":"2026-07-12T18:44:41.284032","CLASSIFICATION_TYPE":"U","MEAN_MOTION":14.9234276,"ECCENTRICITY":0.000132,"INCLINATION":97.7621,"RA_OF_ASC_NODE":151.7091,"ARG_OF_PERICENTER":153.0094,"MEAN_ANOMALY":207.1193,"EPHEMERIS_TYPE":0,"NORAD_CAT_ID":68496,"ELEMENT_SET_NO":999,"REV_AT_EPOCH":1554,"BSTAR":0.0001395,"MEAN_MOTION_DOT":0.0000137,"MEAN_MOTION_DDOT":0},{"OBJECT_NAME":"ICEYE-X75","OBJECT_ID":"2026-067CK","EPOCH":"2026-07-12T18:50:44.381760","CLASSIFICATION_TYPE":"U","MEAN_MOTION":14.92171335,"ECCENTRICITY":0.00012,"INCLINATION":97.7605,"RA_OF_ASC_NODE":151.6814,"ARG_OF_PERICENTER":148.9692,"MEAN_ANOMALY":211.1598,"EPHEMERIS_TYPE":0,"NORAD_CAT_ID":68497,"ELEMENT_SET_NO":999,"REV_AT_EPOCH":1554,"BSTAR":0.000052849,"MEAN_MOTION_DOT":0.00000482,"MEAN_MOTION_DDOT":0},{"OBJECT_NAME":"ICEYE-X74","OBJECT_ID":"2026-067CN","EPOCH":"2026-07-12T19:38:50.309376","CLASSIFICATION_TYPE":"U","MEAN_MOTION":14.91786676,"ECCENTRICITY":0.0001027,"INCLINATION":97.7632,"RA_OF_ASC_NODE":151.672,"ARG_OF_PERICENTER":354.3589,"MEAN_ANOMALY":5.7618,"EPHEMERIS_TYPE":0,"NORAD_CAT_ID":68500,"ELEMENT_SET_NO":999,"REV_AT_EPOCH":1554,"BSTAR":0.00014852,"MEAN_MOTION_DOT":0.00001442,"MEAN_MOTION_DDOT":0},{"OBJECT_NAME":"ICEYE-X76","OBJECT_ID":"2026-067CQ","EPOCH":"2026-07-12T19:32:49.699968","CLASSIFICATION_TYPE":"U","MEAN_MOTION":14.91747811,"ECCENTRICITY":0.0000723,"INCLINATION":97.764,"RA_OF_ASC_NODE":151.686,"ARG_OF_PERICENTER":336.2306,"MEAN_ANOMALY":23.8879,"EPHEMERIS_TYPE":0,"NORAD_CAT_ID":68502,"ELEMENT_SET_NO":999,"REV_AT_EPOCH":1554,"BSTAR":0.00005879,"MEAN_MOTION_DOT":0.00000537,"MEAN_MOTION_DDOT":0}]}
